window._tle = "PEGASUS\n1 42784U 17036V   21207.42539587  .00002398  00000-0  99892-4 0  9990\n2 42784  97.2471 255.2504 0012620  48.7674 311.4649 15.24601250227293";
